0 COSMOS 1275 DEB
1 12660U 81053Q   13282.14578110  .00000293  00000-0  34966-3 0  9596
2 12660 082.8556 264.6218 0139996 186.5996 307.4662 13.60075694591195
0 COSMOS 1275 DEB
1 12660U 81053Q   13286.91249605  .00000298  00000-0  35565-3 0  9613
2 12660 082.8558 261.1356 0140151 173.4827 246.7974 13.60078998591848
0 COSMOS 1275 DEB
1 12660U 81053Q   13289.35902510  .00000434  00000-0  52612-3 0  9620
2 12660 082.8560 259.3464 0140244 166.6956 345.8574 13.60082442592173
0 COSMOS 1275 DEB
1 12660U 81053Q   13292.20963229  .00000721  00000-0  88573-3 0  9637
2 12660 082.8563 257.2619 0140427 158.8426 263.4150 13.60086654592560
0 COSMOS 1275 DEB
1 12660U 81053Q   13294.35435272  .00000865  00000-0  10658-2 0  9645
2 12660 082.8562 255.6937 0140591 152.9588 324.7089 13.60090182592855
